[{"COMMENT":"GENERATED VIA SPACETRACK.ORG API","ORIGINATOR":"18 SPCS","NORAD_CAT_ID":"43477","OBJECT_NAME":"GRACE-FO 2","OBJECT_TYPE":"PAYLOAD","CLASSIFICATION_TYPE":"U","INTLDES":"18047B","EPOCH":"2023-09-14 12:06:49","EPOCH_MICROSECONDS":"825440","MEAN_MOTION":"15.26776537","ECCENTRICITY":"0.0016153","INCLINATION":"88.9916","RA_OF_ASC_NODE":"337.0428","ARG_OF_PERICENTER":"60.3571","MEAN_ANOMALY":"299.9284","EPHEMERIS_TYPE":"0","ELEMENT_SET_NO":"999","REV_AT_EPOCH":"29562","BSTAR":"0.00017507","MEAN_MOTION_DOT":"0.00004651","MEAN_MOTION_DDOT":"0","FILE":"4006374","TLE_LINE0":"0 GRACE-FO 2","TLE_LINE1":"1 43477U 18047B   23257.50474335  .00004651  00000-0  17507-3 0  9994","TLE_LINE2":"2 43477  88.9916 337.0428 0016153  60.3571 299.9284 15.26776537295629","OBJECT_ID":"2018-047B","OBJECT_NUMBER":"43477","SEMIMAJOR_AXIS":"6863.593","PERIOD":"94.316","APOGEE":"496.545","PERIGEE":"474.371","DECAYED":"0"},{"COMMENT":"GENERATED VIA SPACETRACK.ORG API","ORIGINATOR":"18 SPCS","NORAD_CAT_ID":"43477","OBJECT_NAME":"GRACE-FO 2","OBJECT_TYPE":"PAYLOAD","CLASSIFICATION_TYPE":"U","INTLDES":"18047B","EPOCH":"2023-09-14 19:58:44","EPOCH_MICROSECONDS":"491296","MEAN_MOTION":"15.26778559","ECCENTRICITY":"0.0016114","INCLINATION":"88.9915","RA_OF_ASC_NODE":"336.9984","ARG_OF_PERICENTER":"59.2963","MEAN_ANOMALY":"300.9871","EPHEMERIS_TYPE":"0","ELEMENT_SET_NO":"999","REV_AT_EPOCH":"29567","BSTAR":"0.00016072","MEAN_MOTION_DOT":"0.00004272","MEAN_MOTION_DDOT":"0","FILE":"4006631","TLE_LINE0":"0 GRACE-FO 2","TLE_LINE1":"1 43477U 18047B   23257.83245939  .00004272  00000-0  16072-3 0  9991","TLE_LINE2":"2 43477  88.9915 336.9984 0016114  59.2963 300.9871 15.26778559295678","OBJECT_ID":"2018-047B","OBJECT_NUMBER":"43477","SEMIMAJOR_AXIS":"6863.587","PERIOD":"94.316","APOGEE":"496.512","PERIGEE":"474.392","DECAYED":"0"},{"COMMENT":"GENERATED VIA SPACETRACK.ORG API","ORIGINATOR":"18 SPCS","NORAD_CAT_ID":"43477","OBJECT_NAME":"GRACE-FO 2","OBJECT_TYPE":"PAYLOAD","CLASSIFICATION_TYPE":"U","INTLDES":"18047B","EPOCH":"2023-09-15 13:16:56","EPOCH_MICROSECONDS":"565408","MEAN_MOTION":"15.26783914","ECCENTRICITY":"0.001603","INCLINATION":"88.9914","RA_OF_ASC_NODE":"336.9008","ARG_OF_PERICENTER":"56.9591","MEAN_ANOMALY":"303.3195","EPHEMERIS_TYPE":"0","ELEMENT_SET_NO":"999","REV_AT_EPOCH":"29578","BSTAR":"0.00014215","MEAN_MOTION_DOT":"0.00003782","MEAN_MOTION_DDOT":"0","FILE":"4007228","TLE_LINE0":"0 GRACE-FO 2","TLE_LINE1":"1 43477U 18047B   23258.55343247  .00003782  00000-0  14215-3 0  9994","TLE_LINE2":"2 43477  88.9914 336.9008 0016030  56.9591 303.3195 15.26783914295781","OBJECT_ID":"2018-047B","OBJECT_NUMBER":"43477","SEMIMAJOR_AXIS":"6863.571","PERIOD":"94.316","APOGEE":"496.438","PERIGEE":"474.434","DECAYED":"0"},{"COMMENT":"GENERATED VIA SPACETRACK.ORG API","ORIGINATOR":"18 SPCS","NORAD_CAT_ID":"43477","OBJECT_NAME":"GRACE-FO 2","OBJECT_TYPE":"PAYLOAD","CLASSIFICATION_TYPE":"U","INTLDES":"18047B","EPOCH":"2023-09-15 18:00:05","EPOCH_MICROSECONDS":"266080","MEAN_MOTION":"15.26785566","ECCENTRICITY":"0.0016003","INCLINATION":"88.9913","RA_OF_ASC_NODE":"336.8741","ARG_OF_PERICENTER":"56.3121","MEAN_ANOMALY":"303.9651","EPHEMERIS_TYPE":"0","ELEMENT_SET_NO":"999","REV_AT_EPOCH":"29581","BSTAR":"0.00013939","MEAN_MOTION_DOT":"0.0000371","MEAN_MOTION_DDOT":"0","FILE":"4007339","TLE_LINE0":"0 GRACE-FO 2","TLE_LINE1":"1 43477U 18047B   23258.75006095  .00003710  00000-0  13939-3 0  9996","TLE_LINE2":"2 43477  88.9913 336.8741 0016003  56.3121 303.9651 15.26785566295818","OBJECT_ID":"2018-047B","OBJECT_NUMBER":"43477","SEMIMAJOR_AXIS":"6863.566","PERIOD":"94.316","APOGEE":"496.415","PERIGEE":"474.447","DECAYED":"0"},{"COMMENT":"GENERATED VIA SPACETRACK.ORG API","ORIGINATOR":"18 SPCS","NORAD_CAT_ID":"43477","OBJECT_NAME":"GRACE-FO 2","OBJECT_TYPE":"PAYLOAD","CLASSIFICATION_TYPE":"U","INTLDES":"18047B","EPOCH":"2023-09-16 12:52:39","EPOCH_MICROSECONDS":"960768","MEAN_MOTION":"15.26790996","ECCENTRICITY":"0.0015908","INCLINATION":"88.9911","RA_OF_ASC_NODE":"336.7676","ARG_OF_PERICENTER":"53.7713","MEAN_ANOMALY":"306.5004","EPHEMERIS_TYPE":"0","ELEMENT_SET_NO":"999","REV_AT_EPOCH":"29593","BSTAR":"0.00012926","MEAN_MOTION_DOT":"0.00003443","MEAN_MOTION_DDOT":"0","FILE":"4008138","TLE_LINE0":"0 GRACE-FO 2","TLE_LINE1":"1 43477U 18047B   23259.53657362  .00003443  00000-0  12926-3 0  9990","TLE_LINE2":"2 43477  88.9911 336.7676 0015908  53.7713 306.5004 15.26790996295930","OBJECT_ID":"2018-047B","OBJECT_NUMBER":"43477","SEMIMAJOR_AXIS":"6863.550","PERIOD":"94.315","APOGEE":"496.333","PERIGEE":"474.496","DECAYED":"0"},{"COMMENT":"GENERATED VIA SPACETRACK.ORG API","ORIGINATOR":"18 SPCS","NORAD_CAT_ID":"43477","OBJECT_NAME":"GRACE-FO 2","OBJECT_TYPE":"PAYLOAD","CLASSIFICATION_TYPE":"U","INTLDES":"18047B","EPOCH":"2023-09-17 01:27:42","EPOCH_MICROSECONDS":"981696","MEAN_MOTION":"15.26795889","ECCENTRICITY":"0.0015842","INCLINATION":"88.9908","RA_OF_ASC_NODE":"336.6964","ARG_OF_PERICENTER":"51.9745","MEAN_ANOMALY":"308.2931","EPHEMERIS_TYPE":"0","ELEMENT_SET_NO":"999","REV_AT_EPOCH":"29601","BSTAR":"0.00015071","MEAN_MOTION_DOT":"0.00004009","MEAN_MOTION_DDOT":"0","FILE":"4008527","TLE_LINE0":"0 GRACE-FO 2","TLE_LINE1":"1 43477U 18047B   23260.06091414  .00004009  00000-0  15071-3 0  9993","TLE_LINE2":"2 43477  88.9908 336.6964 0015842  51.9745 308.2931 15.26795889296011","OBJECT_ID":"2018-047B","OBJECT_NUMBER":"43477","SEMIMAJOR_AXIS":"6863.535","PERIOD":"94.315","APOGEE":"496.273","PERIGEE":"474.527","DECAYED":"0"},{"COMMENT":"GENERATED VIA SPACETRACK.ORG API","ORIGINATOR":"18 SPCS","NORAD_CAT_ID":"43477","OBJECT_NAME":"GRACE-FO 2","OBJECT_TYPE":"PAYLOAD","CLASSIFICATION_TYPE":"U","INTLDES":"18047B","EPOCH":"2023-09-17 12:28:22","EPOCH_MICROSECONDS":"937088","MEAN_MOTION":"15.26800818","ECCENTRICITY":"0.0015785","INCLINATION":"88.9908","RA_OF_ASC_NODE":"336.6343","ARG_OF_PERICENTER":"50.5156","MEAN_ANOMALY":"309.7486","EPHEMERIS_TYPE":"0","ELEMENT_SET_NO":"999","REV_AT_EPOCH":"29608","BSTAR":"0.00017035","MEAN_MOTION_DOT":"0.00004528","MEAN_MOTION_DDOT":"0","FILE":"4008915","TLE_LINE0":"0 GRACE-FO 2","TLE_LINE1":"1 43477U 18047B   23260.51970992  .00004528  00000-0  17035-3 0  9998","TLE_LINE2":"2 43477  88.9908 336.6343 0015785  50.5156 309.7486 15.26800818296086","OBJECT_ID":"2018-047B","OBJECT_NUMBER":"43477","SEMIMAJOR_AXIS":"6863.520","PERIOD":"94.315","APOGEE":"496.219","PERIGEE":"474.551","DECAYED":"0"},{"COMMENT":"GENERATED VIA SPACETRACK.ORG API","ORIGINATOR":"18 SPCS","NORAD_CAT_ID":"43477","OBJECT_NAME":"GRACE-FO 2","OBJECT_TYPE":"PAYLOAD","CLASSIFICATION_TYPE":"U","INTLDES":"18047B","EPOCH":"2023-09-18 10:29:42","EPOCH_MICROSECONDS":"744192","MEAN_MOTION":"15.2680631","ECCENTRICITY":"0.0015667","INCLINATION":"88.9905","RA_OF_ASC_NODE":"336.51","ARG_OF_PERICENTER":"47.4838","MEAN_ANOMALY":"312.7731","EPHEMERIS_TYPE":"0","ELEMENT_SET_NO":"999","REV_AT_EPOCH":"29622","BSTAR":"0.00015928","MEAN_MOTION_DOT":"0.00004237","MEAN_MOTION_DDOT":"0","FILE":"4009640","TLE_LINE0":"0 GRACE-FO 2","TLE_LINE1":"1 43477U 18047B   23261.43730028  .00004237  00000-0  15928-3 0  9990","TLE_LINE2":"2 43477  88.9905 336.5100 0015667  47.4838 312.7731 15.26806310296220","OBJECT_ID":"2018-047B","OBJECT_NUMBER":"43477","SEMIMAJOR_AXIS":"6863.504","PERIOD":"94.315","APOGEE":"496.122","PERIGEE":"474.616","DECAYED":"0"},{"COMMENT":"GENERATED VIA SPACETRACK.ORG API","ORIGINATOR":"18 SPCS","NORAD_CAT_ID":"43477","OBJECT_NAME":"GRACE-FO 2","OBJECT_TYPE":"PAYLOAD","CLASSIFICATION_TYPE":"U","INTLDES":"18047B","EPOCH":"2023-09-18 13:38:28","EPOCH_MICROSECONDS":"392288","MEAN_MOTION":"15.26807535","ECCENTRICITY":"0.0015654","INCLINATION":"88.9905","RA_OF_ASC_NODE":"336.4922","ARG_OF_PERICENTER":"47.0245","MEAN_ANOMALY":"313.2314","EPHEMERIS_TYPE":"0","ELEMENT_SET_NO":"999","REV_AT_EPOCH":"29624","BSTAR":"0.00016315","MEAN_MOTION_DOT":"0.00004339","MEAN_MOTION_DDOT":"0","FILE":"4009863","TLE_LINE0":"0 GRACE-FO 2","TLE_LINE1":"1 43477U 18047B   23261.56838417  .00004339  00000-0  16315-3 0  9999","TLE_LINE2":"2 43477  88.9905 336.4922 0015654  47.0245 313.2314 15.26807535296240","OBJECT_ID":"2018-047B","OBJECT_NUMBER":"43477","SEMIMAJOR_AXIS":"6863.500","PERIOD":"94.314","APOGEE":"496.109","PERIGEE":"474.621","DECAYED":"0"},{"COMMENT":"GENERATED VIA SPACETRACK.ORG API","ORIGINATOR":"18 SPCS","NORAD_CAT_ID":"43477","OBJECT_NAME":"GRACE-FO 2","OBJECT_TYPE":"PAYLOAD","CLASSIFICATION_TYPE":"U","INTLDES":"18047B","EPOCH":"2023-09-18 21:30:22","EPOCH_MICROSECONDS":"468032","MEAN_MOTION":"15.26810982","ECCENTRICITY":"0.0015615","INCLINATION":"88.9903","RA_OF_ASC_NODE":"336.4477","ARG_OF_PERICENTER":"45.9052","MEAN_ANOMALY":"314.3479","EPHEMERIS_TYPE":"0","ELEMENT_SET_NO":"999","REV_AT_EPOCH":"29629","BSTAR":"0.00017803","MEAN_MOTION_DOT":"0.00004732","MEAN_MOTION_DDOT":"0","FILE":"4010122","TLE_LINE0":"0 GRACE-FO 2","TLE_LINE1":"1 43477U 18047B   23261.89609338  .00004732  00000-0  17803-3 0  9993","TLE_LINE2":"2 43477  88.9903 336.4477 0015615  45.9052 314.3479 15.26810982296292","OBJECT_ID":"2018-047B","OBJECT_NUMBER":"43477","SEMIMAJOR_AXIS":"6863.490","PERIOD":"94.314","APOGEE":"496.072","PERIGEE":"474.637","DECAYED":"0"}]